ISS (ZARYA)             
1 25544U 98067A   26061.93054995  .00009325  00000+0  18075-3 0  9991
2 25544  51.6319 105.7724 0008215 150.8374 209.3074 15.48408287555284
POISK                   
1 36086U 09060A   26061.93054995  .00009325  00000+0  18075-3 0  9999
2 36086  51.6319 105.7724 0008215 150.8374 209.3074 15.48408287554972
CSS (TIANHE)            
1 48274U 21035A   26061.80363536  .00017409  00000+0  21017-3 0  9999
2 48274  41.4651 250.0496 0006616 230.1207 129.9050 15.60315912276530
ISS (NAUKA)             
1 49044U 21066A   26061.93054995  .00009325  00000+0  18075-3 0  9997
2 49044  51.6319 105.7724 0008215 150.8374 209.3074 15.48408287554981
FREGAT DEB              
1 49271U 11037PF  26062.07347649  .00033502  00000+0  49339-1 0  9992
2 49271  51.6509 320.5956 0955180  44.2014 323.1255 12.39774562211870
CSS (WENTIAN)           
1 53239U 22085A   26061.80363536  .00017409  00000+0  21017-3 0  9992
2 53239  41.4651 250.0496 0006616 230.1207 129.9050 15.60315912275615
CSS (MENGTIAN)          
1 54216U 22143A   26061.80363536  .00017409  00000+0  21017-3 0  9993
2 54216  41.4651 250.0496 0006616 230.1207 129.9050 15.60315912275587
PROGRESS-MS 31          
1 64751U 25146A   26061.93054995  .00009325  00000+0  18075-3 0  9992
2 64751  51.6319 105.7724 0008215 150.8374 209.3074 15.48408287554994
TIANZHOU-9              
1 64786U 25149A   26061.80363536  .00017409  00000+0  21017-3 0  9995
2 64786  41.4651 250.0496 0006616 230.1207 129.9050 15.60315912275591
PROGRESS-MS 32          
1 65586U 25204A   26061.93054995  .00009325  00000+0  18075-3 0  9994
2 65586  51.6319 105.7724 0008215 150.8374 209.3074 15.48408287555037
CYGNUS NG-23            
1 65616U 25208A   26061.93054995  .00009325  00000+0  18075-3 0  9992
2 65616  51.6319 105.7724 0008215 150.8374 209.3074 15.48408287555042
ISS OBJECT XK           
1 65731U 98067XK  26062.05995490  .00902575  42896-3  13204-2 0  9991
2 65731  51.6162  81.7296 0005997  52.8791 307.2768 16.04528256 25830
YOTSUBA-KULOVER         
1 65941U 98067XN  26062.12376300  .00191043  00000+0  10993-2 0  9994
2 65941  51.6215  91.2752 0006055  28.2393 331.8934 15.77593623 22469
BOTAN                   
1 65942U 98067XP  26062.18133612  .04280876  12003-4  14562-2 0  9992
2 65942  51.6045  83.2412 0003369  47.8026 312.3279 16.24781476 22576
E-KAGAKU-1              
1 65943U 98067XQ  26062.12696390  .00184729  00000+0  10758-2 0  9992
2 65943  51.6235  91.3116 0006275  36.2244 323.9180 15.77340403 22467
HRC MONOBLOCK CAMERA    
1 66052U 98067XR  26061.40570658  .00053624  00000+0  62049-3 0  9992
2 66052  51.6272 102.2710 0003324  60.8077 299.3249 15.61308322 21256
